AMAZONAS NEXUS          
1 55508U 23017A   24298.22340869 -.00000290  00000+0  00000+0 0  9995
2 55508   0.0475  50.0129 0001542 138.9903 223.5183  1.00270909  1017
ZHONGXING-26            
1 55686U 23023A   24298.79938896 -.00000361  00000+0  00000+0 0  9993
2 55686   0.0717  75.4811 0000879  77.9795 293.1925  1.00270888  6204
LUCH-5X (OLYMP-K 2)     
1 55841U 23031A   24298.84702221 -.00000018  00000+0  00000+0 0  9991
2 55841   0.0293 251.7615 0001054   5.2107  80.8063  1.00268838  5928
GAOFEN-13 02            
1 55912U 23036A   24298.80399361 -.00000228  00000+0  00000+0 0  9991
2 55912   1.7526 309.4767 0002319 354.9422 166.9373  1.00273811  6076
SES-18                  
1 55970U 23038A   24294.55847551 -.00000105  00000+0  00000+0 0  9998
2 55970   0.0137 253.4569 0003230 350.3601 243.6568  1.00271659  6055
SES-19                  
1 55971U 23038B   24298.53944662  .00000079  00000+0  00000+0 0  9991
2 55971   0.0071  49.3509 0001712 172.1088 231.2963  1.00274354  6058
INTELSAT 40E (IS-40E)   
1 56174U 23052A   24290.82032370 -.00000175  00000+0  00000+0 0  9999
2 56174   0.0100 207.8836 0002442 350.9163  31.3542  1.00270828  5729
VIASAT-3                
1 56370U 23060A   24293.18729785 -.00000188  00000+0  00000+0 0  9995
2 56370   0.0178 257.7337 0000143 200.7383 268.2353  1.00272864  5367
ARCTURUS                
1 56371U 23060B   24298.86206608 -.00000123  00000+0  00000+0 0  9999
2 56371   1.2172  87.1925 0000395 289.6611  45.2535  1.00271438  5431
GS-1                    
1 56372U 23060C   24298.00414958 -.00000140  00000+0  00000+0 0  9994
2 56372   1.1673  86.5440 0002854 253.2049 134.9735  1.00240101  1512
BEIDOU-3 G4             
1 56564U 23066A   24298.73483678 -.00000121  00000+0  00000+0 0  9997
2 56564   1.8038 288.7700 0005305 248.8545 280.5850  1.00272613  5374
ARABSAT-7B (BADR-8)     
1 56757U 23075A   24294.73452056  .00000140  00000+0  00000+0 0  9993
2 56757   0.0757  29.3896 0001981 304.0307 346.6935  1.00270724  5075
IRNSS-1J (NVS-01)       
1 56759U 23076A   24296.36928135 -.00000348  00000+0  00000+0 0  9994
2 56759   3.6747 263.3141 0007375 346.8881  43.4592  1.00265494  5071
NUSANTARA TIGA (SATRIA) 
1 57045U 23086A   24298.30309059 -.00000243  00000+0  00000+0 0  9992
2 57045   0.0422  37.2705 0003775 244.4151   6.6372  1.00271438  3731
H2SAT (HEINRICH HERTZ)  
1 57213U 23093A   24298.20275538 -.00000008  00000+0  00000+0 0  9999
2 57213   0.0098 233.9622 0000707 356.2364 236.3755  1.00269177  4892
SYRACUSE 4B             
1 57214U 23093B   24298.84702221 -.00000062  00000+0  00000+0 0  9994
2 57214   0.0174 219.3581 0000494  72.4710  40.2587  1.00272221   935
JUPITER 3 (ECHOSTAR 24) 
1 57479U 23108A   24298.17255574 -.00000158  00000+0  00000+0 0  9990
2 57479   0.0133 247.8646 0001171 328.6094 143.5372  1.00271819  4626
GALAXY 37 (G-37)        
1 57493U 23112A   24298.53488753  .00000040  00000+0  00000+0 0  9997
2 57493   0.0010  67.3964 0002267 157.7638 233.8454  1.00271026  4495
LUDI TANCE-4 01A        
1 57624U 23120A   24298.73452736 -.00000202  00000+0  00000+0 0  9997
2 57624  15.6067 208.6604 0002944  37.8193 141.2682  1.00269165  4522
TJS-10                  
1 58204U 23169A   24298.73744319 -.00000001  00000+0  00000+0 0  9993
2 58204   0.9866  87.4499 0005446 150.0875 234.8649  1.00278591  3525
ZHONGXING-6E            
1 58253U 23172A   24298.85862448 -.00000369  00000+0  00000+0 0  9995
2 58253   0.0137 261.3034 0002379 312.4942 244.5996  1.00272368  3642
YAOGAN-41               
1 58582U 23197A   24298.29857281 -.00000376  00000+0  00000+0 0  9992
2 58582   4.3289 307.9539 0014170 196.3434 119.4290  1.00265083  3290
OVZON-3                 
1 58698U 24003A   24298.87063529  .00000043  00000+0  00000+0 0  9995
2 58698   0.0097 224.9218 0001480  29.3027 152.6610  1.00273249  1413
INSAT-3DS               
1 58990U 24033A   24298.86254237 -.00000164  00000+0  00000+0 0  9995
2 58990   0.0609  80.8666 0001737 143.7357 201.7806  1.00271643 41047
MERAH PUTIH 2           
1 58995U 24035A   24298.60739858 -.00000366  00000+0  00000+0 0  9995
2 58995   0.0104 226.8568 0001743   3.3940 134.8712  1.00270065  2609
TJS-11                  
1 59020U 24037A   24298.86077611 -.00000382  00000+0  00000+0 0  9995
2 59020   5.1107 321.8661 0005568 279.2320 222.6616  1.00275984  2562
HULIANWAN GAOGUI-01 (H*)
1 59069U 24040A   24298.20927141  .00000148  00000+0  00000+0 0  9991
2 59069   0.0503  35.7181 0007019 289.1090 177.2968  1.00272868  1308
EUTELSAT 36D            
1 59346U 24059A   24298.77410642  .00000148  00000+0  00000+0 0  9994
2 59346   0.0170 255.7101 0000145  20.4591  72.0314  1.00271201  2125
PAKSAT-MM1              
1 59915U 24104A   24298.61785442  .00000145  00000+0  00000+0 0  9990
2 59915   0.0093 215.0866 0002835  86.5893 352.4494  1.00271259  1502
GOES 19                 
1 60133U 24119A   24298.89977608 -.00000190  00000+0  00000+0 0  9998
2 60133   0.0051  59.5833 0000075 108.8119  99.8491  1.00272325  1287
ZHONGXING-3A            
1 60179U 24122A   24298.87009169 -.00000322  00000+0  00000+0 0  9995
2 60179   0.0396  67.6923 0003529 179.2496 201.6178  1.00272656  1288
TURKSAT 6A              
1 60233U 24127A   24298.76741939  .00000107  00000+0  00000+0 0  9997
2 60233   0.0359 282.3333 0004784 322.9189 114.7172  1.00270334   995
HULIANWAN GAOGUI-02 (H*)
1 60327U 24135A   24296.94586302 -.00000181  00000+0  00000+0 0  9992
2 60327   0.0539  51.5548 0003137 194.3818 279.5437  1.00273209  1465
STARLETTE               
1 07646U 75010A   24298.84268209 -.00000107  00000+0  26600-4 0  9996
2 07646  49.8254 314.2465 0205713 239.7838 118.2543 13.82335574511495
LAGEOS 1                
1 08820U 76039A   24298.53972243  .00000007  00000+0  00000+0 0  9998
2 08820 109.8557 333.6096 0043992  70.7216 270.9437  6.38664972874771
AJISAI (EGS)            
1 16908U 86061A   24298.84948565 -.00000092  00000+0  39938-4 0  9996
2 16908  50.0081 193.4109 0011457  91.7899  20.9527 12.44508465405630
COSMOS 1989 (ETALON 1)  
1 19751U 89001C   24298.73509742  .00000051  00000+0  00000+0 0  9997
2 19751  64.6162  92.7848 0023725 216.0013 146.2667  2.13156151278576
COSMOS 2024 (ETALON 2)  
1 20026U 89039C   24298.21390994 -.00000052  00000+0  00000+0 0  9997
2 20026  65.2762 331.1618 0019806 216.7371 159.9481  2.13204458275688
LAGEOS 2                
1 22195U 92070B   24298.35384678 -.00000009  00000+0  00000+0 0  9994
2 22195  52.6567 286.3776 0137486 284.1530 206.2167  6.47293824756527
STELLA                  
1 22824U 93061B   24298.84444990 -.00000008  00000+0  15372-4 0  9994
2 22824  98.8624 347.0472 0006440 172.7733 298.6072 14.27438505619120
LARETS                  
1 27944U 03042F   24298.87209541  .00000353  00000+0  77431-4 0  9992
2 27944  98.3353  80.3776 0013481 108.9092 251.3573 14.63620225125629
LARES                   
1 38077U 12006A   24298.81473180 -.00000045  00000+0 -37135-4 0  9994
2 38077  69.4894 237.7348 0011316 253.2390 106.7395 12.54931689581842
LARES-2                 
1 53105U 22080A   24293.28945757  .00000018  00000+0  00000+0 0  9990
2 53105  70.1364 153.1395 0004870 110.1502 249.9887  6.38965226 52958
COSMOS 2433 (720)       
1 32275U 07052A   24298.26504160 -.00000060  00000+0  00000+0 0  9997
2 32275  65.8830 336.0835 0005701 242.0900 117.9119  2.13104117132251
COSMOS 2432 (719)       
1 32276U 07052B   24298.56715991 -.00000059  00000+0  00000+0 0  9995
2 32276  65.8979 336.1898 0010358 308.6874 228.8998  2.13103187132285
COSMOS 2434 (721)       
1 32393U 07065A   24298.21622477 -.00000027  00000+0  00000+0 0  9992
2 32393  64.3171 212.2061 0002547  65.8128 148.8550  2.13101297130962
COSMOS 2436 (723)       
1 32395U 07065C   24298.35463378 -.00000028  00000+0  00000+0 0  9993
2 32395  64.3256 212.2672 0016896   1.6357  94.0758  2.13100042130925
COSMOS 2456 (730)       
1 36111U 09070A   24298.20084400  .00000047  00000+0  00000+0 0  9990
2 36111  64.6760  91.5307 0001360 324.1394  33.0850  2.13103720115616
COSMOS 2457 (733)       
1 36112U 09070B   24298.22810362  .00000047  00000+0  00000+0 0  9997
2 36112  64.6605  91.3857 0006240 145.9923   5.0899  2.13101162115623
COSMOS 2460 (732)       
1 36402U 10007C   24298.49353524 -.00000057  00000+0  00000+0 0  9994
2 36402  65.7366 334.7189 0002737 247.0678 101.2004  2.13106273113927
COSMOS 2476 (744)       
1 37867U 11064A   24298.42462067  .00000051  00000+0  00000+0 0  9993
2 37867  64.9467  93.2061 0022176 230.4269 210.2654  2.13101590100962
COSMOS 2477 (745)       
1 37868U 11064B   24298.50893685  .00000052  00000+0  00000+0 0  9998
2 37868  64.9537  93.2769 0019338 230.5825  93.5607  2.13103033100954
COSMOS 2475 (743)       
1 37869U 11064C   24298.56564993  .00000052  00000+0  00000+0 0  9992
2 37869  64.9606  93.2911 0023638 247.5198  77.9683  2.13101758100963
COSMOS 2485 (747)       
1 39155U 13019A   24298.26127631  .00000052  00000+0  00000+0 0  9995
2 39155  65.1030  93.8229 0022632 226.5005 133.3189  2.13101754 89478
COSMOS 2492 (754)       
1 39620U 14012A   24298.21647953 -.00000057  00000+0  00000+0 0  9991
2 39620  65.6177 334.2865 0013424 308.5165  51.4219  2.13103217 82436
COSMOS 2500 (755)       
1 40001U 14032A   24298.39414984 -.00000056  00000+0  00000+0 0  9992
2 40001  65.5545 334.0756 0008978 214.7324 145.2675  2.13105948 80652
COSMOS 2501 (702K)      
1 40315U 14075A   24298.17951018 -.00000027  00000+0  00000+0 0  9995
2 40315  63.6178 211.1954 0019820 207.8250 152.1025  2.13101376 77041
COSMOS 2514 (751)       
1 41330U 16008A   24298.16239485 -.00000057  00000+0  00000+0 0  9990
2 41330  65.3483 333.5601 0013048 217.4251 142.5418  2.13102648 67815
COSMOS 2522 (752)       
1 42939U 17055A   24297.06368828 -.00000012  00000+0  00000+0 0  9992
2 42939  64.0792 212.3982 0007836 237.6426 122.3153  2.13101935 55145
